[{"OBJECT_NAME":"ONEWEB-0263","OBJECT_ID":"2021-060Q","EPOCH":"2026-02-02T04:14:08.420640","MEAN_MOTION":13.16594091,"ECCENTRICITY":0.0001133,"INCLINATION":87.9013,"RA_OF_ASC_NODE":255.6576,"ARG_OF_PERICENTER":90.5969,"MEAN_ANOMALY":269.5292,"EPHEMERIS_TYPE":0,"CLASSIFICATION_TYPE":"U","NORAD_CAT_ID":48981,"ELEMENT_SET_NO":999,"REV_AT_EPOCH":22182,"BSTAR":-8.6480947e-5,"MEAN_MOTION_DOT":-2.0e-7,"MEAN_MOTION_DDOT":0},{"OBJECT_NAME":"ONEWEB-0264","OBJECT_ID":"2021-060R","EPOCH":"2026-02-02T03:18:17.604864","MEAN_MOTION":13.16594238,"ECCENTRICITY":0.00013182,"INCLINATION":87.9012,"RA_OF_ASC_NODE":255.6695,"ARG_OF_PERICENTER":79.4992,"MEAN_ANOMALY":280.6287,"EPHEMERIS_TYPE":0,"CLASSIFICATION_TYPE":"U","NORAD_CAT_ID":48982,"ELEMENT_SET_NO":999,"REV_AT_EPOCH":22182,"BSTAR":0.00035287642,"MEAN_MOTION_DOT":1.48e-6,"MEAN_MOTION_DDOT":0},{"OBJECT_NAME":"ONEWEB-0266","OBJECT_ID":"2021-060T","EPOCH":"2026-02-02T03:49:04.339200","MEAN_MOTION":13.16594289,"ECCENTRICITY":0.00015863,"INCLINATION":87.9012,"RA_OF_ASC_NODE":255.6543,"ARG_OF_PERICENTER":90.8957,"MEAN_ANOMALY":269.2355,"EPHEMERIS_TYPE":0,"CLASSIFICATION_TYPE":"U","NORAD_CAT_ID":48984,"ELEMENT_SET_NO":999,"REV_AT_EPOCH":22181,"BSTAR":0.00021272825,"MEAN_MOTION_DOT":9.4e-7,"MEAN_MOTION_DDOT":0},{"OBJECT_NAME":"ONEWEB-0267","OBJECT_ID":"2021-060U","EPOCH":"2026-02-02T04:05:01.275360","MEAN_MOTION":13.16594751,"ECCENTRICITY":0.00013018,"INCLINATION":87.9009,"RA_OF_ASC_NODE":255.6488,"ARG_OF_PERICENTER":84.1638,"MEAN_ANOMALY":275.9641,"EPHEMERIS_TYPE":0,"CLASSIFICATION_TYPE":"U","NORAD_CAT_ID":48985,"ELEMENT_SET_NO":999,"REV_AT_EPOCH":22182,"BSTAR":-5.0506969e-5,"MEAN_MOTION_DOT":-6.0e-8,"MEAN_MOTION_DDOT":0},{"OBJECT_NAME":"ONEWEB-0268","OBJECT_ID":"2021-060V","EPOCH":"2026-02-02T01:29:59.599968","MEAN_MOTION":13.16593148,"ECCENTRICITY":0.00014743,"INCLINATION":87.901,"RA_OF_ASC_NODE":255.6803,"ARG_OF_PERICENTER":83.8338,"MEAN_ANOMALY":276.2961,"EPHEMERIS_TYPE":0,"CLASSIFICATION_TYPE":"U","NORAD_CAT_ID":48986,"ELEMENT_SET_NO":999,"REV_AT_EPOCH":22207,"BSTAR":0.00022373056,"MEAN_MOTION_DOT":9.8e-7,"MEAN_MOTION_DDOT":0},{"OBJECT_NAME":"ONEWEB-0269","OBJECT_ID":"2021-060W","EPOCH":"2026-02-02T01:02:37.579200","MEAN_MOTION":13.16593771,"ECCENTRICITY":0.00016451,"INCLINATION":87.9,"RA_OF_ASC_NODE":255.7009,"ARG_OF_PERICENTER":81.494,"MEAN_ANOMALY":278.6377,"EPHEMERIS_TYPE":0,"CLASSIFICATION_TYPE":"U","NORAD_CAT_ID":48987,"ELEMENT_SET_NO":999,"REV_AT_EPOCH":22184,"BSTAR":0.00015075459,"MEAN_MOTION_DOT":7.0e-7,"MEAN_MOTION_DDOT":0},{"OBJECT_NAME":"ONEWEB-0270","OBJECT_ID":"2021-060X","EPOCH":"2026-02-02T03:17:09.373920","MEAN_MOTION":13.16594199,"ECCENTRICITY":0.0001184,"INCLINATION":87.9007,"RA_OF_ASC_NODE":255.6671,"ARG_OF_PERICENTER":100.0547,"MEAN_ANOMALY":260.0717,"EPHEMERIS_TYPE":0,"CLASSIFICATION_TYPE":"U","NORAD_CAT_ID":48988,"ELEMENT_SET_NO":999,"REV_AT_EPOCH":22189,"BSTAR":0.0002966186,"MEAN_MOTION_DOT":1.26e-6,"MEAN_MOTION_DDOT":0},{"OBJECT_NAME":"ONEWEB-0271","OBJECT_ID":"2021-060Y","EPOCH":"2026-02-02T02:58:53.926464","MEAN_MOTION":13.16590575,"ECCENTRICITY":0.00012338,"INCLINATION":87.901,"RA_OF_ASC_NODE":255.6599,"ARG_OF_PERICENTER":87.4843,"MEAN_ANOMALY":272.6429,"EPHEMERIS_TYPE":0,"CLASSIFICATION_TYPE":"U","NORAD_CAT_ID":48989,"ELEMENT_SET_NO":999,"REV_AT_EPOCH":22189,"BSTAR":0.00019092904,"MEAN_MOTION_DOT":8.6e-7,"MEAN_MOTION_DDOT":0},{"OBJECT_NAME":"ONEWEB-0272","OBJECT_ID":"2021-060Z","EPOCH":"2026-02-02T03:30:49.847328","MEAN_MOTION":13.16593926,"ECCENTRICITY":0.00013335,"INCLINATION":87.9007,"RA_OF_ASC_NODE":255.6674,"ARG_OF_PERICENTER":77.9722,"MEAN_ANOMALY":282.1558,"EPHEMERIS_TYPE":0,"CLASSIFICATION_TYPE":"U","NORAD_CAT_ID":48990,"ELEMENT_SET_NO":999,"REV_AT_EPOCH":22184,"BSTAR":-2.4375948e-5,"MEAN_MOTION_DOT":4.0e-8,"MEAN_MOTION_DDOT":0},{"OBJECT_NAME":"ONEWEB-0273","OBJECT_ID":"2021-060AA","EPOCH":"2026-02-02T04:02:45.085632","MEAN_MOTION":13.16595172,"ECCENTRICITY":0.00013408,"INCLINATION":87.9011,"RA_OF_ASC_NODE":255.6609,"ARG_OF_PERICENTER":88.6515,"MEAN_ANOMALY":271.477,"EPHEMERIS_TYPE":0,"CLASSIFICATION_TYPE":"U","NORAD_CAT_ID":48991,"ELEMENT_SET_NO":999,"REV_AT_EPOCH":22182,"BSTAR":0.00022437689,"MEAN_MOTION_DOT":9.9e-7,"MEAN_MOTION_DDOT":0},{"OBJECT_NAME":"ONEWEB-0274","OBJECT_ID":"2021-060AB","EPOCH":"2026-02-02T01:00:21.446496","MEAN_MOTION":13.16593577,"ECCENTRICITY":0.00014732,"INCLINATION":87.8999,"RA_OF_ASC_NODE":255.7034,"ARG_OF_PERICENTER":72.2714,"MEAN_ANOMALY":287.8578,"EPHEMERIS_TYPE":0,"CLASSIFICATION_TYPE":"U","NORAD_CAT_ID":48992,"ELEMENT_SET_NO":999,"REV_AT_EPOCH":22184,"BSTAR":0.00017564128,"MEAN_MOTION_DOT":8.0e-7,"MEAN_MOTION_DDOT":0},{"OBJECT_NAME":"ONEWEB-0275","OBJECT_ID":"2021-060AC","EPOCH":"2026-02-02T02:33:49.784544","MEAN_MOTION":13.16593313,"ECCENTRICITY":0.00014708,"INCLINATION":87.9012,"RA_OF_ASC_NODE":255.666,"ARG_OF_PERICENTER":83.5709,"MEAN_ANOMALY":276.5589,"EPHEMERIS_TYPE":0,"CLASSIFICATION_TYPE":"U","NORAD_CAT_ID":48993,"ELEMENT_SET_NO":999,"REV_AT_EPOCH":22178,"BSTAR":-8.7531591e-5,"MEAN_MOTION_DOT":-2.1e-7,"MEAN_MOTION_DDOT":0},{"OBJECT_NAME":"ONEWEB-0276","OBJECT_ID":"2021-060AD","EPOCH":"2026-02-02T03:21:43.099488","MEAN_MOTION":13.16593839,"ECCENTRICITY":0.00014611,"INCLINATION":87.901,"RA_OF_ASC_NODE":255.6594,"ARG_OF_PERICENTER":93.6414,"MEAN_ANOMALY":266.4884,"EPHEMERIS_TYPE":0,"CLASSIFICATION_TYPE":"U","NORAD_CAT_ID":48994,"ELEMENT_SET_NO":999,"REV_AT_EPOCH":22180,"BSTAR":0.00038071943,"MEAN_MOTION_DOT":1.58e-6,"MEAN_MOTION_DDOT":0},{"OBJECT_NAME":"ONEWEB-0277","OBJECT_ID":"2021-060AE","EPOCH":"2026-02-02T07:18:49.404672","MEAN_MOTION":13.16596204,"ECCENTRICITY":0.00013465,"INCLINATION":87.9001,"RA_OF_ASC_NODE":255.6455,"ARG_OF_PERICENTER":89.7284,"MEAN_ANOMALY":270.4002,"EPHEMERIS_TYPE":0,"CLASSIFICATION_TYPE":"U","NORAD_CAT_ID":48995,"ELEMENT_SET_NO":999,"REV_AT_EPOCH":22181,"BSTAR":0.00043059399,"MEAN_MOTION_DOT":1.77e-6,"MEAN_MOTION_DDOT":0},{"OBJECT_NAME":"ONEWEB-0278","OBJECT_ID":"2021-060AF","EPOCH":"2026-02-02T03:26:16.383552","MEAN_MOTION":13.16593467,"ECCENTRICITY":0.00016974,"INCLINATION":87.9011,"RA_OF_ASC_NODE":255.6554,"ARG_OF_PERICENTER":90.5484,"MEAN_ANOMALY":269.5841,"EPHEMERIS_TYPE":0,"CLASSIFICATION_TYPE":"U","NORAD_CAT_ID":48996,"ELEMENT_SET_NO":999,"REV_AT_EPOCH":22192,"BSTAR":0.00026488751,"MEAN_MOTION_DOT":1.14e-6,"MEAN_MOTION_DDOT":0},{"OBJECT_NAME":"ONEWEB-0279","OBJECT_ID":"2021-060AG","EPOCH":"2026-02-02T03:37:39.798048","MEAN_MOTION":13.16593725,"ECCENTRICITY":0.00012222,"INCLINATION":87.9014,"RA_OF_ASC_NODE":255.6527,"ARG_OF_PERICENTER":82.0212,"MEAN_ANOMALY":278.1057,"EPHEMERIS_TYPE":0,"CLASSIFICATION_TYPE":"U","NORAD_CAT_ID":48997,"ELEMENT_SET_NO":999,"REV_AT_EPOCH":22185,"BSTAR":0.00020078239,"MEAN_MOTION_DOT":9.0e-7,"MEAN_MOTION_DDOT":0}]
