ONEWEB-0263             
1 48981U 21060Q   26033.17648635 -.00000020  00000+0 -86481-4 0  9997
2 48981  87.9013 255.6576 0001133  90.5969 269.5292 13.16594091221821
ONEWEB-0264             
1 48982U 21060R   26033.13770376  .00000148  00000+0  35288-3 0  9999
2 48982  87.9012 255.6695 0001318  79.4992 280.6287 13.16594238221821
ONEWEB-0266             
1 48984U 21060T   26033.15907800  .00000094  00000+0  21273-3 0  9996
2 48984  87.9012 255.6543 0001586  90.8957 269.2355 13.16594289221814
ONEWEB-0267             
1 48985U 21060U   26033.17015365 -.00000006  00000+0 -50507-4 0  9993
2 48985  87.9009 255.6488 0001301  84.1638 275.9641 13.16594751221823
ONEWEB-0268             
1 48986U 21060V   26033.06249537  .00000098  00000+0  22373-3 0  9990
2 48986  87.9010 255.6803 0001474  83.8338 276.2961 13.16593148222077
ONEWEB-0269             
1 48987U 21060W   26033.04349050  .00000070  00000+0  15075-3 0  9991
2 48987  87.9000 255.7009 0001645  81.4940 278.6377 13.16593771221842
ONEWEB-0270             
1 48988U 21060X   26033.13691405  .00000126  00000+0  29662-3 0  9995
2 48988  87.9007 255.6671 0001184 100.0547 260.0717 13.16594199221896
ONEWEB-0271             
1 48989U 21060Y   26033.12423526  .00000086  00000+0  19093-3 0  9994
2 48989  87.9010 255.6599 0001233  87.4843 272.6429 13.16590575221895
ONEWEB-0272             
1 48990U 21060Z   26033.14641027  .00000004  00000+0 -24376-4 0  9998
2 48990  87.9007 255.6674 0001333  77.9722 282.1558 13.16593926221845
ONEWEB-0273             
1 48991U 21060AA  26033.16857738  .00000099  00000+0  22438-3 0  9998
2 48991  87.9011 255.6609 0001340  88.6515 271.4770 13.16595172221826
ONEWEB-0274             
1 48992U 21060AB  26033.04191489  .00000080  00000+0  17564-3 0  9994
2 48992  87.8999 255.7034 0001473  72.2714 287.8578 13.16593577221847
ONEWEB-0275             
1 48993U 21060AC  26033.10682621 -.00000021  00000+0 -87532-4 0  9995
2 48993  87.9012 255.6660 0001470  83.5709 276.5589 13.16593313221783
ONEWEB-0276             
1 48994U 21060AD  26033.14008217  .00000158  00000+0  38072-3 0  9996
2 48994  87.9010 255.6594 0001461  93.6414 266.4884 13.16593839221805
ONEWEB-0277             
1 48995U 21060AE  26033.30473848  .00000177  00000+0  43059-3 0  9993
2 48995  87.9001 255.6455 0001346  89.7284 270.4002 13.16596204221812
ONEWEB-0278             
1 48996U 21060AF  26033.14324518  .00000114  00000+0  26489-3 0  9994
2 48996  87.9011 255.6554 0001697  90.5484 269.5841 13.16593467221925
ONEWEB-0279             
1 48997U 21060AG  26033.15115507  .00000090  00000+0  20078-3 0  9993
2 48997  87.9014 255.6527 0001222  82.0212 278.1057 13.16593725221852
